COSMOS 2419 (714)       
1 28915U 05050A   17253.07934797  .00000016  00000-0  00000+0 0  9995
2 28915  65.5379  62.9937 0015951 358.6576  50.3695  2.13106807 91140
COSMOS 2425 (716)       
1 29670U 06062A   17252.66111207  .00000011  00000-0  10000-3 0  9995
2 29670  65.4183 302.0154 0019788 340.1162 159.6773  2.13105050 83330
COSMOS 2426 (717)       
1 29671U 06062B   17252.68230196  .00000011  00000-0  10000-3 0  9997
2 29671  65.4363 302.1064 0019058 170.9332 202.8273  2.13103044 83348
COSMOS 2424 (715)       
1 29672U 06062C   17252.83543161  .00000010  00000-0  10000-3 0  9993
2 29672  65.4197 302.0212 0018464 170.0335 136.3373  2.13102459 83332
COSMOS 2433 (720)       
1 32275U 07052A   17252.64149245  .00000015  00000-0  10000-3 0  9995
2 32275  65.5530  62.7879 0000834 193.8815 122.8248  2.13104698 76840
COSMOS 2432 (719)       
1 32276U 07052B   17252.86844791  .00000016  00000-0  10000-3 0  9999
2 32276  65.5642  62.8534 0009968 346.4893  97.0388  2.13104056 76850
COSMOS 2434 (721)       
1 32393U 07065A   17252.53423079  .00000012  00000-0  00000-0 0  9991
2 32393  65.0346 301.1287 0004002 146.6826 336.9279  2.13103049 75551
COSMOS 2436 (723)       
1 32395U 07065C   17253.41087892  .00000009  00000-0  10000-3 0  9990
2 32395  65.0441 301.1461 0013074 353.3758 131.8883  2.13104434 75500
COSMOS 2443 (725)       
1 33379U 08046B   17253.08184264  .00000015  00000-0  00000+0 0  9999
2 33379  65.4839  62.1484 0012832 175.7070  17.7679  2.13099450 69724
COSMOS 2456 (730)       
1 36111U 09070A   17252.67943425  .00000034  00000-0  00000+0 0  9991
2 36111  64.1812 180.6885 0005461 305.5700 100.8278  2.13103037 60224
COSMOS 2457 (733)       
1 36112U 09070B   17252.62230266  .00000034  00000-0  00000-0 0  9990
2 36112  64.1633 180.6065 0006011 180.9535 309.7935  2.13101812 60228
COSMOS 2458 (734)       
1 36113U 09070C   17252.61356272  .00000034  00000-0  10000-3 0  9990
2 36113  64.1687 180.6155 0002007 323.5764 208.5298  2.13101943 60221
COSMOS 2459 (731)       
1 36400U 10007A   17252.58888495  .00000014  00000-0  10000-3 0  9992
2 36400  65.4623  61.8853 0026481 357.2235 140.5063  2.13102251 58571
COSMOS 2461 (735)       
1 36401U 10007B   17252.64943637  .00000014  00000-0  10000-3 0  9990
2 36401  65.4554  61.8609 0008709  77.0159  17.7880  2.13102282 58575
COSMOS 2460 (732)       
1 36402U 10007C   17252.59765716  .00000014  00000-0  10000-3 0  9995
2 36402  65.4453  61.8333 0002424  98.5630 357.6183  2.13101774 58575
COSMOS 2465 (737)       
1 37138U 10041B   17252.82722377  .00000010  00000-0  00000+0 0  9993
2 37138  64.6319 301.0630 0036611 171.7385 220.2503  2.13097577 54650
COSMOS 2464 (736)       
1 37139U 10041C   17252.61101679  .00000011  00000-0  00000-0 0  9999
2 37139  64.6391 301.0710 0021041   9.2838  40.9673  2.13102731 54642
COSMOS 2471 (701K)      
1 37372U 11009A   17252.90971565  .00000014  00000-0  00000+0 0  9996
2 37372  65.4434  61.7702 0007040 221.9987 251.5220  2.13107726 50856
COSMOS 2474 (742)       
1 37829U 11055A   17252.71428109  .00000035  00000-0  00000+0 0  9997
2 37829  64.5055 181.2864 0009648 251.8362  40.7048  2.13102010 46216
COSMOS 2476 (744)       
1 37867U 11064A   17252.64459786  .00000035  00000-0  00000+0 0  9996
2 37867  64.4851 181.3585 0018989 245.2188  39.8264  2.13102033 45564
COSMOS 2477 (745)       
1 37868U 11064B   17253.61298574  .00000032  00000-0  00000+0 0  9998
2 37868  64.4927 181.3709 0016776 246.4760 240.5618  2.13101985 45545
COSMOS 2475 (743)       
1 37869U 11064C   17252.63546833  .00000035  00000-0  00000+0 0  9997
2 37869  64.5012 181.3958 0021707 270.6242 142.9708  2.13102267 45530
COSMOS 2485 (747)       
1 39155U 13019A   17252.51200022  .00000035  00000-0  00000+0 0  9993
2 39155  64.6549 181.4108 0019400 240.2786 348.0394  2.13102146 34036
COSMOS 2492 (754)       
1 39620U 14012A   17253.36858856  .00000015  00000-0  10000-3 0  9995
2 39620  65.3359  61.7324 0013141 338.9060 220.8834  2.13103447 27006
COSMOS 2500 (755)       
1 40001U 14032A   17252.63448736  .00000014  00000-0  00000+0 0  9997
2 40001  65.2763  61.7474 0005895 182.9600  36.5293  2.13102859 25206
COSMOS 2501 (702K)      
1 40315U 14075A   17252.63076649  .00000008  00000-0  00000-0 0  9996
2 40315  64.3658 302.3830 0016875 209.7120 171.8961  2.13098728 21617
COSMOS 2514 (751)       
1 41330U 16008A   17252.66747399  .00000013  00000-0  00000-0 0  9998
2 41330  65.0760  61.8690 0008526 201.3434 223.6491  2.13103428 12379
COSMOS 2516 (753)       
1 41554U 16032A   17252.74454177  .00000009  00000-0  00000+0 0  9995
2 41554  64.5859 302.1663 0014224 220.3013 155.9703  2.13101697  9989
